INTELSAT 26 (IS-26)     
1 24732U 97007A   20321.74676250  .00000001  00000-0  00000+0 0  9996
2 24732   9.2539  42.0847 0002517 198.9470 147.7130  1.00273250 86834
GALAXY 25 (G-25)        
1 24812U 97026A   20321.52527023  .00000155  00000-0  00000-0 0  9996
2 24812   2.2820  89.0759 0005107 171.2192  17.7605  1.00269155 85937
INTELSAT 5 (IS-5)       
1 24916U 97046A   20321.60313844  .00000089  00000-0  00000+0 0  9991
2 24916   6.0195  64.6887 0004261 173.6079 257.9722  1.00270217 85175
INTELSAT 805 (IS-805)   
1 25371U 98037A   20321.73158345 -.00000202  00000-0  00000+0 0  9993
2 25371   2.8159  86.5145 0012959 106.2303 114.4822  0.99480156 82098
GALAXY 11 (G-11)        
1 26038U 99071A   20321.42835101 -.00000162  00000-0  00000+0 0  9996
2 26038   1.5846  95.1924 0000326 357.7493  24.1532  1.00271031 76638
INTELSAT 9 (IS-9)       
1 26451U 00043A   20321.72399392 -.00000288  00000-0  00000+0 0  9995
2 26451   6.0086  64.8869 0002666 172.8799  29.1410  1.00271753 74402
INTELSAT 12 (IS-12)     
1 26590U 00068A   20321.78521564  .00000012  00000-0  00000+0 0  9994
2 26590   3.2874  84.8679 0004402 164.3249 154.0279  1.00271330 73363
INTELSAT 1R (IS-1R)     
1 26608U 00072A   20321.76534378 -.00000138  00000-0  00000+0 0  9994
2 26608   3.0378  85.2948 0000237 297.2168 106.4059  1.00273116 73217
INTELSAT 10 (IS-10)     
1 26766U 01019A   20321.52814902  .00000124  00000-0  00000+0 0  9993
2 26766   4.2352  77.8919 0003564 160.2340  55.5662  1.00270884 71489
INTELSAT 901 (IS-901)   
1 26824U 01024A   20321.72853019 -.00000202  00000-0  00000+0 0  9996
2 26824   0.0421  91.7280 0000491 161.2322  38.0870  1.00272983 71140
INTELSAT 902 (IS-902)   
1 26900U 01039A   20321.72399392 -.00000282  00000-0  00000+0 0  9994
2 26900   0.9807  95.0493 0003188 148.6735  23.0883  1.00270119 70335
DIRECTV 4S              
1 26985U 01052A   20321.73158345 -.00000210  00000-0  00000+0 0  9995
2 26985   1.0720  93.9498 0001470 341.5542 232.1065  0.99266425 69535
INTELSAT 904 (IS-904)   
1 27380U 02007A   20321.72818125 -.00000213  00000-0  00000+0 0  9997
2 27380   1.8197  91.7831 0002987 139.8710  57.2701  1.00271403 68646
INTELSAT 903 (IS-903)   
1 27403U 02016A   20321.73730227 -.00000168  00000-0  00000+0 0  9999
2 27403   2.6050  87.1429 0003748 178.1959 169.9836  0.99020269 68175
DIRECTV 5 (TEMPO 1)     
1 27426U 02023A   20321.61976309 -.00000056  00000-0  00000+0 0  9998
2 27426   0.0177 307.5582 0002774 289.7264 291.8775  1.00271384 67868
INTELSAT 905 (IS-905)   
1 27438U 02027A   20321.72914083 -.00000184  00000-0  00000+0 0  9990
2 27438   1.6403  92.6339 0002453 133.4932  68.1439  1.00272112 67528
GALAXY 3C (G-3C)        
1 27445U 02030A   20321.42791483 -.00000151  00000-0  00000+0 0  9990
2 27445   0.0239 297.0900 0001357  33.2775 144.6042  1.00273745 67517
INTELSAT 906 (IS-906)   
1 27513U 02041A   20321.78521564  .00000014  00000-0  00000+0 0  9995
2 27513   0.6454  97.3141 0003230 143.2328 162.6154  1.00272734 66536
INTELSAT 907 (IS-907)   
1 27683U 03007A   20321.72914083 -.00000242  00000-0  00000+0 0  9996
2 27683   0.5438  88.1561 0001603  78.0386 128.2748  0.99161429 64923
GALAXY 12 (G-12)        
1 27715U 03013B   20321.56470091  .00000059  00000-0  00000+0 0  9992
2 27715   1.8547  91.1782 0001596 142.5718 256.6523  1.00272130 64562
GALAXY 23 (G-23)        
1 27854U 03034A   20321.70986168  .00000013  00000-0  00000+0 0  9992
2 27854   0.0247 279.8546 0003174 320.9055 310.0636  1.00271071 68104
GALAXY 13 (HORIZONS 1)  
1 27954U 03044A   20321.60579076  .00000048  00000-0  00000+0 0  9997
2 27954   0.0380 114.1744 0000370  72.6072 320.4577  1.00272959 62715
DIRECTV 7S              
1 28238U 04016A   20321.71029786  .00000001  00000-0  00000+0 0  9992
2 28238   0.0661  99.9756 0000388 238.6169 214.3230  1.00273805 60611
INTELSAT 10-02          
1 28358U 04022A   20321.73385159 -.00000011  00000-0  00000+0 0  9995
2 28358   0.0133 267.7818 0002601 325.6751  86.0344  1.00271755 60180
XM-3 (RHYTHM)           
1 28626U 05008A   20321.57325005 -.00000206  00000-0  00000+0 0  9990
2 28626   0.0182 300.4821 0000211 182.6744  54.2605  1.00270203 57628
SPACEWAY 1              
1 28644U 05015A   20321.77040347 -.00000169  00000-0  00000+0 0  9991
2 28644   1.4836  92.4853 0003175  60.7325   3.0034  0.98491840 57025
DIRECTV 8               
1 28659U 05019A   20321.35990179  .00000001  00000-0  00000+0 0  9996
2 28659   0.0154 293.6573 0002507 307.7795 184.9872  1.00273438 56748
GALAXY 28 (G-28)        
1 28702U 05022A   20321.57272663 -.00000185  00000-0  00000+0 0  9998
2 28702   0.0144 316.2091 0000584 353.4214 223.6742  1.00270192 56381
GALAXY 14 (G-14)        
1 28790U 05030A   20321.60699240  .00000037  00000-0  00000-0 0  9998
2 28790   0.0202 317.7012 0002312 268.0582 283.9106  1.00272102 55871
GALAXY 15 (G-15)        
1 28884U 05041A   20321.56391579  .00000079  00000-0  00000+0 0  9998
2 28884   0.0102 138.5299 0001749  93.6709 253.9184  1.00272242 55188
SPACEWAY 2              
1 28903U 05046B   20321.60025405  .00000104  00000-0  00000-0 0  9992
2 28903   0.5427  92.3828 0000143 350.6041  50.3530  1.00271990 30908
GALAXY 16 (G-16)        
1 29236U 06023A   20321.57072021 -.00000127  00000-0  00000+0 0  9995
2 29236   0.0457 106.2377 0002447 117.1986 299.1423  1.00271062 52822
DIRECTV 9S              
1 29494U 06043A   20321.57028403 -.00000113  00000-0  00000+0 0  9993
2 29494   0.0151 236.9792 0002848 355.2870 287.9547  1.00271340 51665
XM-4 (BLUES)            
1 29520U 06049A   20321.61511542 -.00000022  00000-0  00000+0 0  9994
2 29520   0.0126 283.7883 0000288 150.8431  87.6541  1.00269109 51553
GALAXY 17 (G-17)        
1 31307U 07016B   20321.80525513 -.00000175  00000-0  00000+0 0  9998
2 31307   0.0413  69.0758 0002996 163.7721  22.3966  1.00271142 49630
DIRECTV 10              
1 31862U 07032A   20321.62130133 -.00000103  00000-0  00000+0 0  9993
2 31862   0.0428 101.9078 0000062 164.2070 270.9193  1.00269682 48962
SPACEWAY 3              
1 32018U 07036A   20321.42800205 -.00000151  00000-0  00000-0 0  9997
2 32018   0.0049  64.9794 0000181  84.7243 325.4055  1.00271688 26113
INTELSAT 11 (IS-11)     
1 32253U 07044B   20321.72547692 -.00000269  00000-0  00000+0 0  9997
2 32253   0.0137 295.1303 0002109 334.5937   4.7338  1.00271568 48082
HORIZONS 2              
1 32388U 07063B   20321.77271434 -.00000183  00000-0  00000+0 0  9995
2 32388   0.0150 304.4312 0002026 293.9711 180.9422  1.00271375 47442
DIRECTV 11              
1 32729U 08013A   20321.42712969 -.00000125  00000-0  00000-0 0  9992
2 32729   0.0052  44.9342 0000251  74.2790 351.3517  1.00271715 25157
GALAXY 18 (G-18)        
1 32951U 08024A   20321.65104689  .00000025  00000-0  00000+0 0  9997
2 32951   0.0151 312.8218 0002798 277.3483 297.3771  1.00269479 45647
INTELSAT 25 (IS-25)     
1 33153U 08034A   20321.72774507 -.00000224  00000-0  00000+0 0  9995
2 33153   0.0119 252.4879 0002675 331.8259  62.4480  1.00271059 45194
GALAXY 19 (G-19)        
1 33376U 08045A   20321.35577062 -.00000138  00000-0  00000-0 0  9995
2 33376   0.0162 306.5105 0002785 286.5680 213.8860  1.00270740 44502
SIRIUS FM-5             
1 35493U 09034A   20321.57325005 -.00000200  00000-0  00000+0 0  9997
2 35493   0.0196 299.5804 0000519 150.8297  85.9451  1.00270522 41530
INTELSAT 14 (IS-14)     
1 36097U 09064A   20321.72504074 -.00000274  00000-0  00000+0 0  9994
2 36097   0.0084  63.2315 0002481 174.0281  35.0253  1.00271628 40253
INTELSAT 15 (IS-15)     
1 36106U 09067A   20321.77271434 -.00000186  00000-0  00000+0 0  9996
2 36106   0.0141   6.6614 0001995 229.5009 183.4800  1.00271171 40163
DIRECTV 12              
1 36131U 09075A   20321.75085278 -.00000104  00000-0  00000+0 0  9990
2 36131   0.0389 135.9155 0000387 342.2763 105.6911  1.00271219 39941
INTELSAT 16 (IS-16)     
1 36397U 10006A   20321.25905823 -.00000244  00000-0  00000+0 0  9997
2 36397   0.0107 345.0084 0001893 246.9780 200.8896  1.00271254 39297
XM-5                    
1 37185U 10053A   20321.57325005 -.00000205  00000-0  00000+0 0  9995
2 37185   0.0156 301.7860 0002018 119.9721 115.5211  1.00270440 37008
INTELSAT 17 (IS-17)     
1 37238U 10065B   20321.04285549 -.00000001  00000-0  00000-0 0  9992
2 37238   0.0046 239.8236 0002960 359.1744 258.0201  1.00270457 32951
INTELSAT NEW DAWN       
1 37392U 11016A   20321.74056875  .00000155  00000-0  00000+0 0  9993
2 37392   0.0137 237.2893 0001227 351.8150 126.6045  1.00270381 35077
INTELSAT 18 (IS-18)     
1 37834U 11056A   20321.76988006  .00000053  00000-0  00000+0 0  9997
2 37834   0.0153 299.3573 0001705 286.7261 287.3728  1.00273928 33419
INTELSAT 22 (IS-22)     
1 38098U 12011A   20321.74841999 -.00000059  00000-0  00000+0 0  9996
2 38098   0.0115 326.5389 0003100 263.5119 167.7814  1.00272827 31618
INTELSAT 19 (IS-19)     
1 38356U 12030A   20321.76708851 -.00000056  00000-0  00000+0 0  9992
2 38356   0.0146 287.7191 0002683 309.1098 261.6472  1.00272952 31079
INTELSAT 20 (IS-20)     
1 38740U 12043A   20321.55743878 -.00000024  00000-0  00000+0 0  9993
2 38740   0.0052 281.1458 0002674 265.4703 138.6641  1.00270949 30381
INTELSAT 21 (IS-21)     
1 38749U 12045A   20321.72242367 -.00000285  00000-0  00000+0 0  9999
2 38749   0.0175 303.6413 0001740 279.5836  35.1160  1.00271174 30190
INTELSAT 23 (IS-23)     
1 38867U 12057A   20321.72347050 -.00000285  00000-0  00000+0 0  9998
2 38867   0.0176 275.2680 0001611 307.8332  40.6168  1.00273343 29664
SIRIUS FM-6             
1 39360U 13058A   20321.61511510 -.00000017  00000-0  00000+0 0  9994
2 39360   0.0299 291.3379 0000745 182.4526  47.6667  1.00270116 25901
INTELSAT 30 (IS-30)     
1 40271U 14062A   20318.55666122 -.00000142  00000-0  00000+0 0  9991
2 40271   0.0151 287.5836 0004124 187.2354  43.6637  1.00232924 22290
INTELSAT 34 (IS-34)     
1 40874U 15039A   20321.70194101 -.00000286  00000-0  00000+0 0  9998
2 40874   0.0156 296.5114 0000787 204.4712 112.4707  1.00270608 19171
INTELSAT 31 (IS-31)     
1 41581U 16035A   20321.57150532 -.00000151  00000-0  00000+0 0  9997
2 41581   0.0177 259.2572 0001869 301.3793 326.1624  1.00271538 16253
INTELSAT 36 (IS-36)     
1 41747U 16053A   20321.60413160 -.00000024  00000-0  00000+0 0  9993
2 41747   0.0127 337.9526 0002308  42.7592 321.4140  1.00270227 15521
INTELSAT 33E (IS-33E)   
1 41748U 16053B   20321.78521564  .00000049  00000-0  00000+0 0  9997
2 41748   0.0395  65.4756 0001728 160.6662 172.8548  1.00270699 15781
INTELSAT 32E (IS-32E)   
1 41945U 17007B   20321.72538969 -.00000269  00000-0  00000+0 0  9992
2 41945   0.0174 316.8345 0000694 184.0656 133.3416  1.00272495 13809
INTELSAT 35E (IS-35E)   
1 42818U 17041A   20321.72713441 -.00000238  00000-0  00000+0 0  9996
2 42818   0.0238 187.7484 0001836  54.8153  40.9848  1.00272059 12395
INTELSAT 37E (IS-37E)   
1 42950U 17059A   20321.73044937 -.00000141  00000-0  00000+0 0  9993
2 42950   0.0147 277.2481 0002766 311.0272  72.9576  1.00270650 11607
AZERSPACE 2 (IS-38)     
1 43632U 18074A   20321.74301135  .00000137  00000-0  00000+0 0  9990
2 43632   0.0270 279.4520 0001178 310.0028 139.3928  1.00267716  8057
HORIZONS 3E             
1 43633U 18074B   20321.76769917 -.00000031  00000-0  00000+0 0  9993
2 43633   0.0031 147.8001 0000080 267.1297  86.7523  1.00270665  7889
INTELSAT 39 (IS-39)     
1 44476U 19049B   20321.78521564  .00000033  00000-0  00000+0 0  9999
2 44476   0.0164 296.0181 0000699 157.3624 307.5709  1.00270112  4714
